[{"OBJECT_NAME":"SITRO-AIS 17","OBJECT_ID":"2024-199BG","EPOCH":"2026-03-09T22:41:43.974240","MEAN_MOTION":14.97395626,"ECCENTRICITY":0.0007298,"INCLINATION":97.3319,"RA_OF_ASC_NODE":274.6922,"ARG_OF_PERICENTER":55.1829,"MEAN_ANOMALY":305.008,"EPHEMERIS_TYPE":0,"CLASSIFICATION_TYPE":"U","NORAD_CAT_ID":61789,"ELEMENT_SET_NO":999,"REV_AT_EPOCH":11718,"BSTAR":0.00028776531,"MEAN_MOTION_DOT":3.293e-5,"MEAN_MOTION_DDOT":0},{"OBJECT_NAME":"STARLINK-34604","OBJECT_ID":"2025-150M","EPOCH":"2026-03-09T14:29:12.660000","MEAN_MOTION":14.98330941,"ECCENTRICITY":0.0003458,"INCLINATION":70.0022,"RA_OF_ASC_NODE":134.6858,"ARG_OF_PERICENTER":265.0859,"MEAN_ANOMALY":94.9905,"EPHEMERIS_TYPE":0,"CLASSIFICATION_TYPE":"U","NORAD_CAT_ID":64801,"ELEMENT_SET_NO":999,"REV_AT_EPOCH":3650,"BSTAR":0.00028954,"MEAN_MOTION_DOT":3.364e-5,"MEAN_MOTION_DDOT":0}]
